NORAD_CAT_ID,OBJECT_NAME,OBJECT_TYPE,EPOCH,MEAN_MOTION,ECCENTRICITY,INCLINATION,RA_OF_ASC_NODE,ARG_OF_PERICENTER,MEAN_ANOMALY,BSTAR,MEAN_MOTION_DOT,MEAN_MOTION_DDOT,TLE_LINE0,TLE_LINE1,TLE_LINE2,SEMIMAJOR_AXIS,PERIOD,APOGEE,PERIGEE,DECAYED
51126.0,STARLINK-3386,PAYLOAD,2024-03-29 09:35:11,15.08837625,9.45e-05,53.2176,247.7478,101.0523,259.0576,0.00011552,1.551e-05,0.0,0 STARLINK-3386,1 51126U 22005Y   24089.39944081  .00001551  00000-0  11552-3 0  9994,2 51126  53.2176 247.7478 0000945 101.0523 259.0576 15.08837625122622,6917.888,95.438,540.406,539.099,0.0
51126.0,STARLINK-3386,PAYLOAD,2024-03-29 20:42:54,15.08817224,9.06e-05,53.2175,245.6646,95.4932,264.6164,0.0004115,6.263e-05,0.0,0 STARLINK-3386,1 51126U 22005Y   24089.86313153  .00006263  00000-0  41150-3 0  9998,2 51126  53.2175 245.6646 0000906  95.4932 264.6164 15.08817224122697,6917.95,95.439,540.442,539.188,0.0
51126.0,STARLINK-3386,PAYLOAD,2024-03-30 03:04:26,15.08840157,0.0001581,53.2213,244.4779,108.2536,251.8628,0.00013125,1.801e-05,0.0,0 STARLINK-3386,1 51126U 22005Y   24090.12808220  .00001801  00000-0  13125-3 0  9997,2 51126  53.2213 244.4779 0001581 108.2536 251.8628 15.08840157122736,6917.88,95.438,540.839,538.651,0.0
51126.0,STARLINK-3386,PAYLOAD,2024-03-30 14:12:09,15.0883156,9.61e-05,53.2197,242.3959,92.8574,267.2528,1.9437e-05,2.2e-07,0.0,0 STARLINK-3386,1 51126U 22005Y   24090.59177091  .00000022  00000-0  19437-4 0  9990,2 51126  53.2197 242.3959 0000961  92.8574 267.2528 15.08831560121697,6917.906,95.438,540.436,539.106,0.0
51126.0,STARLINK-3386,PAYLOAD,2024-03-30 17:22:55,15.08831653,0.0001532,53.2172,241.8026,108.5376,251.5783,1.9701e-05,2.6e-07,0.0,0 STARLINK-3386,1 51126U 22005Y   24090.72425070  .00000026  00000-0  19701-4 0  9996,2 51126  53.2172 241.8026 0001532 108.5376 251.5783 15.08831653122827,6917.906,95.438,540.831,538.711,0.0
51126.0,STARLINK-3386,PAYLOAD,2024-03-31 02:55:13,15.08844737,9.14e-05,53.2189,240.0146,79.4347,280.6748,0.00013793,1.908e-05,0.0,0 STARLINK-3386,1 51126U 22005Y   24091.12168120  .00001908  00000-0  13793-3 0  9995,2 51126  53.2189 240.0146 0000914  79.4347 280.6748 15.08844737122883,6917.866,95.437,540.363,539.099,0.0
51126.0,STARLINK-3386,PAYLOAD,2024-03-31 09:16:46,15.08839145,0.00017,53.2232,238.8295,90.6556,269.4631,0.0001223,1.659e-05,0.0,0 STARLINK-3386,1 51126U 22005Y   24091.38664658  .00001659  00000-0  12230-3 0  9998,2 51126  53.2232 238.8295 0001700  90.6556 269.4631 15.08839145122921,6917.883,95.438,540.924,538.572,0.0
51126.0,STARLINK-3386,PAYLOAD,2024-03-31 14:02:55,15.08837551,0.0001673,53.2228,237.9372,90.8397,269.2787,9.931e-05,1.293e-05,0.0,0 STARLINK-3386,1 51126U 22005Y   24091.58536775  .00001293  00000-0  99310-4 0  9997,2 51126  53.2228 237.9372 0001673  90.8397 269.2787 15.08837551121845,6917.888,95.438,540.91,538.596,0.0
51126.0,STARLINK-3386,PAYLOAD,2024-03-31 17:13:42,15.08837369,0.0001568,53.2191,237.3408,86.5868,273.5303,0.00010542,1.39e-05,0.0,0 STARLINK-3386,1 51126U 22005Y   24091.71784737  .00001390  00000-0  10542-3 0  9992,2 51126  53.2191 237.3408 0001568  86.5868 273.5303 15.08837369121867,6917.888,95.438,540.838,538.669,0.0
51126.0,STARLINK-3386,PAYLOAD,2024-04-01 02:45:59,15.08851207,0.000124,53.2183,235.5568,87.3025,272.8109,0.00011403,1.528e-05,0.0,0 STARLINK-3386,1 51126U 22005Y   24092.11527679  .00001528  00000-0  11403-3 0  9997,2 51126  53.2183 235.5568 0001240  87.3025 272.8109 15.08851207123030,6917.846,95.437,540.569,538.853,0.0
51126.0,STARLINK-3386,PAYLOAD,2024-04-01 15:29:07,15.08815015,0.0001371,53.2185,233.177,93.2404,266.8745,-7.554e-05,-1.489e-05,0.0,0 STARLINK-3386,1 51126U 22005Y   24092.64522948 -.00001489  00000-0 -75540-4 0  9990,2 51126  53.2185 233.1770 0001371  93.2404 266.8745 15.08815015122005,6917.957,95.439,540.77,538.873,0.0
51126.0,STARLINK-3386,PAYLOAD,2024-04-01 18:39:54,15.08819331,9.9e-05,53.2184,232.58,96.149,263.9615,-0.00010245,-1.917e-05,0.0,0 STARLINK-3386,1 51126U 22005Y   24092.77770837 -.00001917  00000-0 -10245-3 0  9992,2 51126  53.2184 232.5800 0000990  96.1490 263.9615 15.08819331123138,6917.944,95.439,540.493,539.124,0.0
51126.0,STARLINK-3386,PAYLOAD,2024-04-02 02:36:49,15.08825752,0.0001268,53.2193,231.0956,93.8813,266.2324,-2.2443e-05,-6.45e-06,0.0,0 STARLINK-3386,1 51126U 22005Y   24093.10890649 -.00000645  00000-0 -22443-4 0  9995,2 51126  53.2193 231.0956 0001268  93.8813 266.2324 15.08825752123188,6917.924,95.438,540.666,538.912,0.0
51126.0,STARLINK-3386,PAYLOAD,2024-04-02 15:19:53,15.08841229,6.64e-05,53.2161,228.7186,72.7315,287.375,0.00023866,3.513e-05,0.0,0 STARLINK-3386,1 51126U 22005Y   24093.63881652  .00003513  00000-0  23866-3 0  9991,2 51126  53.2161 228.7186 0000664  72.7315 287.3750 15.08841229122153,6917.877,95.437,540.201,539.282,0.0
51126.0,STARLINK-3386,PAYLOAD,2024-04-03 02:27:34,15.08865502,0.0001103,53.2173,226.6331,142.4578,217.6491,4.223e-05,3.85e-06,0.0,0 STARLINK-3386,1 51126U 22005Y   24094.10247980  .00000385  00000-0  42230-4 0  9995,2 51126  53.2173 226.6331 0001103 142.4578 217.6491 15.08865502123339,6917.802,95.436,540.43,538.904,0.0
51126.0,STARLINK-3386,PAYLOAD,2024-04-03 08:49:08,15.08843655,0.0001214,53.2189,225.4453,109.024,251.0884,0.00050738,7.797e-05,0.0,0 STARLINK-3386,1 51126U 22005Y   24094.36745603  .00007797  00000-0  50738-3 0  9993,2 51126  53.2189 225.4453 0001214 109.0240 251.0884 15.08843655123373,6917.869,95.437,540.574,538.894,0.0
51126.0,STARLINK-3386,PAYLOAD,2024-04-03 11:59:54,15.08842547,0.0001213,53.2192,224.8494,112.6038,247.5082,0.0004487,6.861e-05,0.0,0 STARLINK-3386,1 51126U 22005Y   24094.49993614  .00006861  00000-0  44870-3 0  9995,2 51126  53.2192 224.8494 0001213 112.6038 247.5082 15.08842547122287,6917.873,95.437,540.577,538.898,0.0
51126.0,STARLINK-3386,PAYLOAD,2024-04-03 18:21:26,15.0884456,0.0001217,53.2182,223.6592,110.3884,249.7238,0.00036777,5.571e-05,0.0,0 STARLINK-3386,1 51126U 22005Y   24094.76489449  .00005571  00000-0  36777-3 0  9995,2 51126  53.2182 223.6592 0001217 110.3884 249.7238 15.08844560122329,6917.866,95.437,540.573,538.89,0.0
51126.0,STARLINK-3386,PAYLOAD,2024-04-04 13:26:04,15.08846465,0.000113,53.2176,220.0907,110.9031,249.2082,4.7011e-05,4.61e-06,0.0,0 STARLINK-3386,1 51126U 22005Y   24095.55977151  .00000461  00000-0  47011-4 0  9992,2 51126  53.2176 220.0907 0001130 110.9031 249.2082 15.08846465123551,6917.861,95.437,540.507,538.944,0.0
51126.0,STARLINK-3386,PAYLOAD,2024-04-04 15:01:27,15.08845511,0.0001008,53.218,219.7947,102.5461,257.5644,5.1897e-05,5.38e-06,0.0,0 STARLINK-3386,1 51126U 22005Y   24095.62601182  .00000538  00000-0  51897-4 0  9990,2 51126  53.2180 219.7947 0001008 102.5461 257.5644 15.08845511122458,6917.864,95.437,540.426,539.031,0.0
51126.0,STARLINK-3386,PAYLOAD,2024-04-05 14:52:14,15.08839277,0.0001077,53.2176,215.3368,93.896,266.2155,0.00029814,4.46e-05,0.0,0 STARLINK-3386,1 51126U 22005Y   24096.61960694  .00004460  00000-0  29814-3 0  9997,2 51126  53.2176 215.3368 0001077  93.8960 266.2155 15.08839277122607,6917.883,95.438,540.493,539.003,0.0
51126.0,STARLINK-3386,PAYLOAD,2024-04-06 14:43:00,15.0888583,7.58e-05,53.2173,210.8768,112.0894,248.0178,-0.00088419,-0.00014349,0.0,0 STARLINK-3386,1 51126U 22005Y   24097.61319922 -.00014349  00000-0 -88419-3 0  9995,2 51126  53.2173 210.8768 0000758 112.0894 248.0178 15.08885830122758,6917.74,95.435,540.13,539.081,0.0
51126.0,STARLINK-3386,PAYLOAD,2024-04-07 08:12:16,15.0883413,9.77e-05,53.2153,207.6018,74.7288,285.3812,-4.2565e-05,-9.65e-06,0.0,0 STARLINK-3386,1 51126U 22005Y   24098.34185699 -.00000965  00000-0 -42565-4 0  9990,2 51126  53.2153 207.6018 0000977  74.7288 285.3812 15.08834130123973,6917.898,95.438,540.439,539.087,0.0
51126.0,STARLINK-3386,PAYLOAD,2024-04-08 23:56:53,15.08849064,0.0001618,53.2184,200.1693,84.9947,275.123,9.228e-05,1.181e-05,0.0,0 STARLINK-3386,1 51126U 22005Y   24099.99784380  .00001181  00000-0  92280-4 0  9992,2 51126  53.2184 200.1693 0001618  84.9947 275.1230 15.08849064123111,6917.853,95.437,540.837,538.598,0.0
51126.0,STARLINK-3386,PAYLOAD,2024-04-09 06:18:26,15.08849877,0.0001553,53.218,198.9788,87.3682,272.7488,9.9278e-05,1.293e-05,0.0,0 STARLINK-3386,1 51126U 22005Y   24100.26280189  .00001293  00000-0  99278-4 0  9991,2 51126  53.2180 198.9788 0001553  87.3682 272.7488 15.08849877123151,6917.85,95.437,540.79,538.641,0.0
51126.0,STARLINK-3386,PAYLOAD,2024-04-09 23:47:41,15.08839175,0.0001753,53.2184,195.7096,85.322,274.7972,2.555e-05,1.19e-06,0.0,0 STARLINK-3386,1 51126U 22005Y   24100.99145396  .00000119  00000-0  25550-4 0  9999,2 51126  53.2184 195.7096 0001753  85.3220 274.7972 15.08839175124375,6917.883,95.438,540.961,538.535,0.0
51126.0,STARLINK-3386,PAYLOAD,2024-04-10 12:30:46,15.08838242,0.0001665,53.2148,193.3321,83.3544,276.7638,0.00012429,1.69e-05,0.0,0 STARLINK-3386,1 51126U 22005Y   24101.52137002  .00001690  00000-0  12429-3 0  9999,2 51126  53.2148 193.3321 0001665  83.3544 276.7638 15.08838242123340,6917.886,95.438,540.903,538.599,0.0
51126.0,STARLINK-3386,PAYLOAD,2024-04-10 23:38:28,15.08843257,0.0001836,53.2157,191.2505,83.6051,276.515,0.00015338,2.154e-05,0.0,0 STARLINK-3386,1 51126U 22005Y   24101.98504673  .00002154  00000-0  15338-3 0  9999,2 51126  53.2157 191.2505 0001836  83.6051 276.5150 15.08843257124527,6917.87,95.437,541.006,538.465,0.0
51126.0,STARLINK-3386,PAYLOAD,2024-04-11 12:21:33,15.08837108,0.0001555,53.2174,188.8702,97.2658,262.8511,4.2569e-05,3.9e-06,0.0,0 STARLINK-3386,1 51126U 22005Y   24102.51497461  .00000390  00000-0  42569-4 0  9992,2 51126  53.2174 188.8702 0001555  97.2658 262.8511 15.08837108124605,6917.889,95.438,540.83,538.678,0.0
51126.0,STARLINK-3386,PAYLOAD,2024-04-12 12:12:20,15.08839533,0.0001502,53.2176,184.4089,98.0317,262.0845,1.0362e-07,-2.86e-06,0.0,0 STARLINK-3386,1 51126U 22005Y   24103.50857562 -.00000286  00000-0  10362-6 0  9997,2 51126  53.2176 184.4089 0001502  98.0317 262.0845 15.08839533123649,6917.882,95.438,540.786,538.708,0.0
